[
  {
    "id": 0,
    "picture": "http://placehold.it/200x200",
    "name": "XERONK",
    "phone": "+1 (828) 523-3973",
    "address": "758 Conover Street",
    "city": "Saranap",
    "state": "New Mexico",
    "zip": 45043
  },
  {
    "id": 1,
    "picture": "http://placehold.it/200x200",
    "name": "BESTO",
    "phone": "+1 (953) 513-3200",
    "address": "5640 Bushwick Court",
    "city": "Brecon",
    "state": "Rhode Island",
    "zip": 52695
  },
  {
    "id": 2,
    "picture": "http://placehold.it/200x200",
    "name": "SPEEDBOLT",
    "phone": "+1 (957) 486-3087",
    "address": "3229 Poplar Avenue",
    "city": "Cartwright",
    "state": "Iowa",
    "zip": 19262
  },
  {
    "id": 3,
    "picture": "http://placehold.it/200x200",
    "name": "ACUMENTOR",
    "phone": "+1 (895) 569-2977",
    "address": "500 Homecrest Court",
    "city": "Chapin",
    "state": "North Carolina",
    "zip": 87023
  },
  {
    "id": 4,
    "picture": "http://placehold.it/200x200",
    "name": "PARAGONIA",
    "phone": "+1 (880) 441-2088",
    "address": "3737 Myrtle Avenue",
    "city": "Villarreal",
    "state": "Nevada",
    "zip": 68352
  },
  {
    "id": 5,
    "picture": "http://placehold.it/200x200",
    "name": "INSECTUS",
    "phone": "+1 (865) 533-2533",
    "address": "6353 Noble Street",
    "city": "Cleary",
    "state": "Arkansas",
    "zip": 84177
  },
  {
    "id": 6,
    "picture": "http://placehold.it/200x200",
    "name": "SONGBIRD",
    "phone": "+1 (913) 519-2431",
    "address": "5565 Cleveland Street",
    "city": "Cassel",
    "state": "Illinois",
    "zip": 51824
  },
  {
    "id": 7,
    "picture": "http://placehold.it/200x200",
    "name": "PROXSOFT",
    "phone": "+1 (802) 406-2140",
    "address": "9932 Monument Walk",
    "city": "Bendon",
    "state": "Federated States Of Micronesia",
    "zip": 84490
  },
  {
    "id": 8,
    "picture": "http://placehold.it/200x200",
    "name": "JASPER",
    "phone": "+1 (848) 485-2211",
    "address": "3562 Devon Avenue",
    "city": "Retsof",
    "state": "North Dakota",
    "zip": 20302
  },
  {
    "id": 9,
    "picture": "http://placehold.it/200x200",
    "name": "EZENT",
    "phone": "+1 (911) 519-2838",
    "address": "7387 Noll Street",
    "city": "Tuttle",
    "state": "South Dakota",
    "zip": 37062
  },
  {
    "id": 10,
    "picture": "http://placehold.it/200x200",
    "name": "CALLFLEX",
    "phone": "+1 (941) 525-3989",
    "address": "2292 Strauss Street",
    "city": "Ellerslie",
    "state": "Delaware",
    "zip": 61206
  },
  {
    "id": 11,
    "picture": "http://placehold.it/200x200",
    "name": "OPTICOM",
    "phone": "+1 (913) 592-2081",
    "address": "9384 Ferry Place",
    "city": "Itmann",
    "state": "Florida",
    "zip": 82370
  },
  {
    "id": 12,
    "picture": "http://placehold.it/200x200",
    "name": "POLARAX",
    "phone": "+1 (944) 484-3076",
    "address": "4041 Empire Boulevard",
    "city": "Tampico",
    "state": "Connecticut",
    "zip": 44698
  },
  {
    "id": 13,
    "picture": "http://placehold.it/200x200",
    "name": "EQUICOM",
    "phone": "+1 (974) 589-2033",
    "address": "4179 Erasmus Street",
    "city": "Konterra",
    "state": "Mississippi",
    "zip": 17664
  },
  {
    "id": 14,
    "picture": "http://placehold.it/200x200",
    "name": "ENDIPIN",
    "phone": "+1 (846) 503-2513",
    "address": "2281 Macon Street",
    "city": "Temperanceville",
    "state": "Arizona",
    "zip": 10818
  },
  {
    "id": 15,
    "picture": "http://placehold.it/200x200",
    "name": "EARWAX",
    "phone": "+1 (848) 542-3986",
    "address": "5304 Post Court",
    "city": "Darlington",
    "state": "Alabama",
    "zip": 38452
  },
  {
    "id": 16,
    "picture": "http://placehold.it/200x200",
    "name": "SCENTY",
    "phone": "+1 (963) 494-3936",
    "address": "1477 Hudson Avenue",
    "city": "Sena",
    "state": "Marshall Islands",
    "zip": 22902
  },
  {
    "id": 17,
    "picture": "http://placehold.it/200x200",
    "name": "VANTAGE",
    "phone": "+1 (917) 594-2903",
    "address": "8514 Fayette Street",
    "city": "Steinhatchee",
    "state": "New Jersey",
    "zip": 75684
  },
  {
    "id": 18,
    "picture": "http://placehold.it/200x200",
    "name": "PREMIANT",
    "phone": "+1 (876) 554-3288",
    "address": "1476 Bartlett Street",
    "city": "Bridgetown",
    "state": "West Virginia",
    "zip": 58931
  },
  {
    "id": 19,
    "picture": "http://placehold.it/200x200",
    "name": "UNQ",
    "phone": "+1 (906) 556-3719",
    "address": "9995 Bath Avenue",
    "city": "Boomer",
    "state": "Oregon",
    "zip": 63639
  }
]
